SL-16 R/B               
1 22566U 93016B   25361.47686133  .00000210  00000+0  13227-3 0  9995
2 22566  71.0085   6.8506 0008045  68.1321 292.0657 14.15294091691954
COSMOS 2242             
1 22626U 93024A   25362.01831001  .00003047  00000+0  26766-3 0  9991
2 22626  82.5195 335.2404 0016190 180.0761 180.0461 14.96172558769674
SL-16 R/B               
1 22803U 93059B   25361.90725030  .00000257  00000+0  15068-3 0  9990
2 22803  70.9889 162.5015 0018729 314.2789  45.6797 14.17217673669366
ARIANE 40 R/B           
1 22830U 93061H   25362.12124234  .00000330  00000+0  13667-3 0  9992
2 22830  98.5056  67.3700 0011627 132.8265 227.3898 14.32811963683854
COSMOS 2278             
1 23087U 94023A   25362.16616182  .00000210  00000+0  13451-3 0  9996
2 23087  71.0536 324.7351 0007701 151.6729 208.4814 14.14349670634699
SL-16 R/B               
1 23088U 94023B   25362.03306731 -.00000149  00000+0 -52262-4 0  9996
2 23088  70.9973 221.3700 0002235   1.4781 358.6348 14.14998750635959
SL-16 R/B               
1 23343U 94074B   25362.02838486  .00000626  00000+0  90680-4 0  9996
2 23343  97.7187  30.7241 0008049  94.1361 321.8438 14.79307382676651
SL-16 R/B               
1 23405U 94077B   25362.11329634 -.00000228  00000+0 -92263-4 0  9997
2 23405  70.9824 143.0720 0005034 272.3634  87.6912 14.15551325606100
ARIANE 40+ R/B          
1 23561U 95021B   25362.09584501  .00000392  00000+0  13928-3 0  9993
2 23561  98.4632  69.4982 0006646   6.5596  54.4664 14.39707464608943
SL-16 R/B               
1 23705U 95058B   25362.18743006 -.00000002  00000+0  23308-4 0  9993
2 23705  71.0218 330.3712 0014503 234.6419 125.3349 14.15481386557734
SL-16 R/B               
1 24298U 96051B   25362.14030843  .00000012  00000+0  33324-4 0  9998
2 24298  70.7596 326.6848 0019451 242.4652 117.4491 14.12397953511540
ORBVIEW 2 (SEASTAR)     
1 24883U 97037A   25362.04141287  .00000414  00000+0  16051-3 0  9990
2 24883  98.8464 159.5017 0001196 271.1181  88.9867 14.35428455498190
