CCSDS_OMM_VERS = 2.0
CREATION_DATE  = 
ORIGINATOR     = 

OBJECT_NAME    = SL-16 R/B
OBJECT_ID      = 1993-016B
CENTER_NAME    = EARTH
REF_FRAME      = TEME
TIME_SYSTEM    = UTC
MEAN_ELEMENT_THEORY = SGP/SGP4

EPOCH          = 2025-12-27T11:26:40.818912
MEAN_MOTION    = 14.15294091
ECCENTRICITY   = .00080458
INCLINATION    = 71.0085
RA_OF_ASC_NODE = 6.8506
ARG_OF_PERICENTER = 68.1321
MEAN_ANOMALY   = 292.0657

EPHEMERIS_TYPE = 0
CLASSIFICATION_TYPE = U
NORAD_CAT_ID   = 22566
ELEMENT_SET_NO = 999
REV_AT_EPOCH   = 69195
BSTAR          = .13226754E-3
MEAN_MOTION_DOT = .21E-5
MEAN_MOTION_DDOT = 0

CCSDS_OMM_VERS = 2.0
CREATION_DATE  = 
ORIGINATOR     = 

OBJECT_NAME    = COSMOS 2242
OBJECT_ID      = 1993-024A
CENTER_NAME    = EARTH
REF_FRAME      = TEME
TIME_SYSTEM    = UTC
MEAN_ELEMENT_THEORY = SGP/SGP4

EPOCH          = 2025-12-28T00:26:21.984864
MEAN_MOTION    = 14.96172558
ECCENTRICITY   = .001619
INCLINATION    = 82.5195
RA_OF_ASC_NODE = 335.2404
ARG_OF_PERICENTER = 180.0761
MEAN_ANOMALY   = 180.0461

EPHEMERIS_TYPE = 0
CLASSIFICATION_TYPE = U
NORAD_CAT_ID   = 22626
ELEMENT_SET_NO = 999
REV_AT_EPOCH   = 76967
BSTAR          = .26766E-3
MEAN_MOTION_DOT = .3047E-4
MEAN_MOTION_DDOT = 0

CCSDS_OMM_VERS = 2.0
CREATION_DATE  = 
ORIGINATOR     = 

OBJECT_NAME    = SL-16 R/B
OBJECT_ID      = 1993-059B
CENTER_NAME    = EARTH
REF_FRAME      = TEME
TIME_SYSTEM    = UTC
MEAN_ELEMENT_THEORY = SGP/SGP4

EPOCH          = 2025-12-27T21:46:26.425920
MEAN_MOTION    = 14.17217673
ECCENTRICITY   = .0018729
INCLINATION    = 70.9889
RA_OF_ASC_NODE = 162.5015
ARG_OF_PERICENTER = 314.2789
MEAN_ANOMALY   = 45.6797

EPHEMERIS_TYPE = 0
CLASSIFICATION_TYPE = U
NORAD_CAT_ID   = 22803
ELEMENT_SET_NO = 999
REV_AT_EPOCH   = 66936
BSTAR          = .15068E-3
MEAN_MOTION_DOT = .257E-5
MEAN_MOTION_DDOT = 0

CCSDS_OMM_VERS = 2.0
CREATION_DATE  = 
ORIGINATOR     = 

OBJECT_NAME    = ARIANE 40 R/B
OBJECT_ID      = 1993-061H
CENTER_NAME    = EARTH
REF_FRAME      = TEME
TIME_SYSTEM    = UTC
MEAN_ELEMENT_THEORY = SGP/SGP4

EPOCH          = 2025-12-28T02:54:35.338176
MEAN_MOTION    = 14.32811963
ECCENTRICITY   = .0011627
INCLINATION    = 98.5056
RA_OF_ASC_NODE = 67.3700
ARG_OF_PERICENTER = 132.8265
MEAN_ANOMALY   = 227.3898

EPHEMERIS_TYPE = 0
CLASSIFICATION_TYPE = U
NORAD_CAT_ID   = 22830
ELEMENT_SET_NO = 999
REV_AT_EPOCH   = 68385
BSTAR          = .13667E-3
MEAN_MOTION_DOT = .33E-5
MEAN_MOTION_DDOT = 0

CCSDS_OMM_VERS = 2.0
CREATION_DATE  = 
ORIGINATOR     = 

OBJECT_NAME    = COSMOS 2278
OBJECT_ID      = 1994-023A
CENTER_NAME    = EARTH
REF_FRAME      = TEME
TIME_SYSTEM    = UTC
MEAN_ELEMENT_THEORY = SGP/SGP4

EPOCH          = 2025-12-28T03:59:16.381248
MEAN_MOTION    = 14.14349670
ECCENTRICITY   = .0007701
INCLINATION    = 71.0536
RA_OF_ASC_NODE = 324.7351
ARG_OF_PERICENTER = 151.6729
MEAN_ANOMALY   = 208.4814

EPHEMERIS_TYPE = 0
CLASSIFICATION_TYPE = U
NORAD_CAT_ID   = 23087
ELEMENT_SET_NO = 999
REV_AT_EPOCH   = 63469
BSTAR          = .13451E-3
MEAN_MOTION_DOT = .21E-5
MEAN_MOTION_DDOT = 0

CCSDS_OMM_VERS = 2.0
CREATION_DATE  = 
ORIGINATOR     = 

OBJECT_NAME    = SL-16 R/B
OBJECT_ID      = 1994-023B
CENTER_NAME    = EARTH
REF_FRAME      = TEME
TIME_SYSTEM    = UTC
MEAN_ELEMENT_THEORY = SGP/SGP4

EPOCH          = 2025-12-28T00:47:37.015584
MEAN_MOTION    = 14.14998750
ECCENTRICITY   = .0002235
INCLINATION    = 70.9973
RA_OF_ASC_NODE = 221.3700
ARG_OF_PERICENTER = 1.4781
MEAN_ANOMALY   = 358.6348

EPHEMERIS_TYPE = 0
CLASSIFICATION_TYPE = U
NORAD_CAT_ID   = 23088
ELEMENT_SET_NO = 999
REV_AT_EPOCH   = 63595
BSTAR          = -.52262E-4
MEAN_MOTION_DOT = -.149E-5
MEAN_MOTION_DDOT = 0

CCSDS_OMM_VERS = 2.0
CREATION_DATE  = 
ORIGINATOR     = 

OBJECT_NAME    = SL-16 R/B
OBJECT_ID      = 1994-074B
CENTER_NAME    = EARTH
REF_FRAME      = TEME
TIME_SYSTEM    = UTC
MEAN_ELEMENT_THEORY = SGP/SGP4

EPOCH          = 2025-12-28T00:40:52.451904
MEAN_MOTION    = 14.79307382
ECCENTRICITY   = .0008049
INCLINATION    = 97.7187
RA_OF_ASC_NODE = 30.7241
ARG_OF_PERICENTER = 94.1361
MEAN_ANOMALY   = 321.8438

EPHEMERIS_TYPE = 0
CLASSIFICATION_TYPE = U
NORAD_CAT_ID   = 23343
ELEMENT_SET_NO = 999
REV_AT_EPOCH   = 67665
BSTAR          = .9068E-4
MEAN_MOTION_DOT = .626E-5
MEAN_MOTION_DDOT = 0

CCSDS_OMM_VERS = 2.0
CREATION_DATE  = 
ORIGINATOR     = 

OBJECT_NAME    = SL-16 R/B
OBJECT_ID      = 1994-077B
CENTER_NAME    = EARTH
REF_FRAME      = TEME
TIME_SYSTEM    = UTC
MEAN_ELEMENT_THEORY = SGP/SGP4

EPOCH          = 2025-12-28T02:43:08.803776
MEAN_MOTION    = 14.15551325
ECCENTRICITY   = .0005034
INCLINATION    = 70.9824
RA_OF_ASC_NODE = 143.0720
ARG_OF_PERICENTER = 272.3634
MEAN_ANOMALY   = 87.6912

EPHEMERIS_TYPE = 0
CLASSIFICATION_TYPE = U
NORAD_CAT_ID   = 23405
ELEMENT_SET_NO = 999
REV_AT_EPOCH   = 60610
BSTAR          = -.92263E-4
MEAN_MOTION_DOT = -.228E-5
MEAN_MOTION_DDOT = 0

CCSDS_OMM_VERS = 2.0
CREATION_DATE  = 
ORIGINATOR     = 

OBJECT_NAME    = ARIANE 40+ R/B
OBJECT_ID      = 1995-021B
CENTER_NAME    = EARTH
REF_FRAME      = TEME
TIME_SYSTEM    = UTC
MEAN_ELEMENT_THEORY = SGP/SGP4

EPOCH          = 2025-12-28T02:18:01.008864
MEAN_MOTION    = 14.39707464
ECCENTRICITY   = .0006646
INCLINATION    = 98.4632
RA_OF_ASC_NODE = 69.4982
ARG_OF_PERICENTER = 6.5596
MEAN_ANOMALY   = 54.4664

EPHEMERIS_TYPE = 0
CLASSIFICATION_TYPE = U
NORAD_CAT_ID   = 23561
ELEMENT_SET_NO = 999
REV_AT_EPOCH   = 60894
BSTAR          = .13928E-3
MEAN_MOTION_DOT = .392E-5
MEAN_MOTION_DDOT = 0

CCSDS_OMM_VERS = 2.0
CREATION_DATE  = 
ORIGINATOR     = 

OBJECT_NAME    = SL-16 R/B
OBJECT_ID      = 1995-058B
CENTER_NAME    = EARTH
REF_FRAME      = TEME
TIME_SYSTEM    = UTC
MEAN_ELEMENT_THEORY = SGP/SGP4

EPOCH          = 2025-12-28T04:29:53.957184
MEAN_MOTION    = 14.15481386
ECCENTRICITY   = .0014503
INCLINATION    = 71.0218
RA_OF_ASC_NODE = 330.3712
ARG_OF_PERICENTER = 234.6419
MEAN_ANOMALY   = 125.3349

EPHEMERIS_TYPE = 0
CLASSIFICATION_TYPE = U
NORAD_CAT_ID   = 23705
ELEMENT_SET_NO = 999
REV_AT_EPOCH   = 55773
BSTAR          = .23308E-4
MEAN_MOTION_DOT = -.2E-7
MEAN_MOTION_DDOT = 0

CCSDS_OMM_VERS = 2.0
CREATION_DATE  = 
ORIGINATOR     = 

OBJECT_NAME    = SL-16 R/B
OBJECT_ID      = 1996-051B
CENTER_NAME    = EARTH
REF_FRAME      = TEME
TIME_SYSTEM    = UTC
MEAN_ELEMENT_THEORY = SGP/SGP4

EPOCH          = 2025-12-28T03:22:02.648352
MEAN_MOTION    = 14.12397953
ECCENTRICITY   = .0019451
INCLINATION    = 70.7596
RA_OF_ASC_NODE = 326.6848
ARG_OF_PERICENTER = 242.4652
MEAN_ANOMALY   = 117.4491

EPHEMERIS_TYPE = 0
CLASSIFICATION_TYPE = U
NORAD_CAT_ID   = 24298
ELEMENT_SET_NO = 999
REV_AT_EPOCH   = 51154
BSTAR          = .33324E-4
MEAN_MOTION_DOT = .12E-6
MEAN_MOTION_DDOT = 0

CCSDS_OMM_VERS = 2.0
CREATION_DATE  = 
ORIGINATOR     = 

OBJECT_NAME    = ORBVIEW 2 (SEASTAR)
OBJECT_ID      = 1997-037A
CENTER_NAME    = EARTH
REF_FRAME      = TEME
TIME_SYSTEM    = UTC
MEAN_ELEMENT_THEORY = SGP/SGP4

EPOCH          = 2025-12-28T00:59:38.071968
MEAN_MOTION    = 14.35428455
ECCENTRICITY   = .0001196
INCLINATION    = 98.8464
RA_OF_ASC_NODE = 159.5017
ARG_OF_PERICENTER = 271.1181
MEAN_ANOMALY   = 88.9867

EPHEMERIS_TYPE = 0
CLASSIFICATION_TYPE = U
NORAD_CAT_ID   = 24883
ELEMENT_SET_NO = 999
REV_AT_EPOCH   = 49819
BSTAR          = .16051E-3
MEAN_MOTION_DOT = .414E-5
MEAN_MOTION_DDOT = 0

